{"n":27844,"c":6,"l1":"1 27844U 2003-031 26137.76007259  0.00000175  00000-0  946400-5 0  9991","l2":"2 27844  98.6745 146.7015 0008283 274.5188  85.5045 14.24315356187340","nm":"CUTE-1 (CO-55)"},{"n":27848,"c":6,"l1":"1 27848U 2003-031 26136.96017615  0.00000150  00000-0  850810-5 0  9995","l2":"2 27848  98.6778 145.6494 0008323 298.5397  61.4943 14.23602877186932","nm":"CUBESAT XI-IV (CO-57)"},{"n":28895,"c":9,"l1":"1 28895U 2005-043 26137.82582784  0.00000794  00000-0  133130-4 0  9995","l2":"2 28895  98.2951 292.8177 0012920 304.6589  55.3399 14.72543571 97282","nm":"CUBESAT XI-V"},{"n":32785,"c":9,"l1":"1 32785U 2008-021 26137.88442149  0.00003902  00000-0  249820-4 0  9991","l2":"2 32785  97.8268 118.6837 0010395 125.5557 234.6641 15.09139374980622","nm":"CUTE-1.7+APD II (CO-65)"},{"n":32790,"c":9,"l1":"1 32790U 2008-021 26137.18266487  0.00001771  00000-0  127986-4 0  9999","l2":"2 32790  97.8621 116.3682 0011494 141.1467 219.0587 15.05374272980146","nm":"CANX-2"},{"n":32791,"c":9,"l1":"1 32791U 2008-021 26137.76721970  0.00010760  00000-0  354780-4 0  9999","l2":"2 32791  97.7520 134.2408 0004846  75.1413 285.0364 15.31630012982637","nm":"SEEDS II (CO-66)"},{"n":35932,"c":9,"l1":"1 35932U 2009-051 26137.72224980  0.00000602  00000-0  128740-4 0  9997","l2":"2 35932  98.4055  45.0785 0005870 317.8012  42.2736 14.62416723884703","nm":"SWISSCUBE"},{"n":35933,"c":9,"l1":"1 35933U 2009-051 26137.23674970  0.00000509  00000-0  112091-4 0  9990","l2":"2 35933  98.3985  44.2844 0004729 338.5961  21.5041 14.61665049884667","nm":"BEESAT-1"},{"n":35935,"c":9,"l1":"1 35935U 2009-051 26137.47465492  0.00000468  00000-0  106678-4 0  9993","l2":"2 35935  98.4070  43.7503 0007125 344.8531  15.2454 14.60389786884250","nm":"ITUPSAT1"},{"n":36799,"c":9,"l1":"1 36799U 2010-035 26137.79234375  0.00012735  00000-0  434910-4 0  9998","l2":"2 36799  98.0707  81.6791 0003085  44.0640 316.0844 15.30463360863052","nm":"TISAT 1"},{"n":38767,"c":9,"l1":"1 38767U 2012-048 26137.70872132  0.00118416  00000-0  647970-4 0  9996","l2":"2 38767  64.6277 136.8872 0018455 216.4848 143.5050 15.79014906367822","nm":"AEROCUBE 4.5A"},{"n":39090,"c":9,"l1":"1 39090U 2013-009 26137.49185404  0.00000158  00000-0  675664-5 0  9994","l2":"2 39090  98.3916 318.4832 0007930 330.2368  29.8367 14.37143622692658","nm":"STRAND-1"},{"n":39091,"c":6,"l1":"1 39091U 2013-009 26137.77015485  0.00000095  00000-0  469550-5 0  9992","l2":"2 39091  98.3987 317.9601 0009629 337.6859  22.3907 14.36528925692681","nm":"BRITE-AUSTRIA"},{"n":39151,"c":9,"l1":"1 39151U 2013-018 26137.64912235  0.00001163  00000-0  116290-4 0  9990","l2":"2 39151  98.1183 280.8011 0011332 263.6771  96.3158 14.93494868706149","nm":"NEE-01 PEGASO"},{"n":39269,"c":9,"l1":"1 39269U 2013-055 26137.83937887  0.00009037  00000-0  155430-4 0  9999","l2":"2 39269  80.9911 178.9154 0418618 291.4246  64.2803 14.90502877658690","nm":"POPACS 2"},{"n":39270,"c":9,"l1":"1 39270U 2013-055 26137.60161662  0.00011960  00000-0  284560-4 0  9991","l2":"2 39270  81.0016 262.3265 0554808 162.9992 199.0663 14.55353971634104","nm":"POPACS 3"},{"n":39417,"c":9,"l1":"1 39417U 2013-066 26137.87679229  0.00003138  00000-0  246830-4 0  9994","l2":"2 39417  97.8123 100.0495 0041238 354.8071   5.2720 15.00936481676182","nm":"ZACUBE-1 (TSHEPISOSAT)"},{"n":39423,"c":9,"l1":"1 39423U 2013-066 26137.67243200  0.00000277  00000-0  596190-5 0  9994","l2":"2 39423  97.7164 289.0011 0162347 328.4519  30.7025 14.58020951662289","nm":"WNISAT-1"},{"n":39427,"c":9,"l1":"1 39427U 2013-066 26137.83783301  0.00002005  00000-0  245110-4 0  9990","l2":"2 39427  97.8274  48.3364 0089664 334.3203  25.3571 14.81564434669591","nm":"TRITON-1"},{"n":39430,"c":9,"l1":"1 39430U 2013-066 26137.81464331  0.00001317  00000-0  204000-4 0  9999","l2":"2 39430  97.6504 340.1938 0128833 174.3930 185.8755 14.69329294665456","nm":"GOMX-1"},{"n":39440,"c":9,"l1":"1 39440U 2013-066 26137.58168229  0.00001760  00000-0  167240-4 0  9997","l2":"2 39440  97.8896  86.4411 0059131 127.8407 232.8184 14.93506810672427","nm":"CUBEBUG-2 (LO-74)"},{"n":39441,"c":9,"l1":"1 39441U 2013-066 26137.58256008  0.00000936  00000-0  108130-4 0  9998","l2":"2 39441  97.8884  77.0216 0066455 168.7508 191.5212 14.86492155671652","nm":"NEE-02 KRYSAOR"},{"n":39444,"c":9,"l1":"1 39444U 2013-066 26137.49295487  0.00004330  00000-0  273954-4 0  9994","l2":"2 39444  97.8263 108.3115 0034922 310.4162  49.4020 15.09062717675035","nm":"FUNCUBE-1 (AO-73)"},{"n":39446,"c":9,"l1":"1 39446U 2013-066 26137.59998602  0.00002704  00000-0  235940-4 0  9992","l2":"2 39446  97.8682  93.4792 0050496  62.4412 298.1926 14.96740642673001","nm":"UWE-3"},{"n":40020,"c":6,"l1":"1 40020U 2014-033 26137.80217985  0.00000387  00000-0  659170-5 0  9990","l2":"2 40020  97.9696 267.2984 0078920  15.2242 345.1314 14.72631779637749","nm":"BRITE-CA1 (TORONTO)"},{"n":40021,"c":9,"l1":"1 40021U 2014-033 26137.58282872  0.00049774  00000-0  641890-4 0  9995","l2":"2 40021  98.0498 192.5945 0006026 175.1555 184.9759 15.58842535650971","nm":"DUCHIFAT-1"},{"n":40024,"c":9,"l1":"1 40024U 2014-033 26137.81242221  0.00011468  00000-0  392530-4 0  9991","l2":"2 40024  98.0739 167.5315 0001676 294.5217  65.5847 15.30422068649337","nm":"NANOSATC-BR1"},{"n":40025,"c":9,"l1":"1 40025U 2014-033 26137.76217279  0.00005841  00000-0  292890-4 0  9997","l2":"2 40025  98.0972 146.7868 0007858 341.5889  18.5058 15.17749645648413","nm":"QB50P1"},{"n":40032,"c":9,"l1":"1 40032U 2014-033 26137.78295296  0.00004552  00000-0  249540-4 0  9994","l2":"2 40032  98.0752 132.7822 0005672 281.8283  78.2311 15.14735983648061","nm":"QB50P2"},{"n":40037,"c":9,"l1":"1 40037U 2014-033 26137.81972123  0.00001776  00000-0  166020-4 0  9990","l2":"2 40037  97.9955  87.7474 0013288  45.9211 314.3100 14.95412650646242","nm":"PERSEUS-M2"}