OBJECT_NAME,OBJECT_ID,EPOCH,MEAN_MOTION,ECCENTRICITY,INCLINATION,RA_OF_ASC_NODE,ARG_OF_PERICENTER,MEAN_ANOMALY,EPHEMERIS_TYPE,CLASSIFICATION_TYPE,NORAD_CAT_ID,ELEMENT_SET_NO,REV_AT_EPOCH,BSTAR,MEAN_MOTION_DOT,MEAN_MOTION_DDOT
CUTE-1 (CO-55),2003-031E,2026-05-17T18:14:30.272640,14.24315356,.0008283,98.6745,146.7015,274.5188,85.5045,0,U,27844,999,18734,.9464E-4,.175E-5,0
CUBESAT XI-IV (CO-57),2003-031J,2026-05-16T23:02:39.219360,14.23602877,.0008323,98.6778,145.6494,298.5397,61.4943,0,U,27848,999,18693,.85081E-4,.15E-5,0
CUBESAT XI-V,2005-043F,2026-05-17T19:49:11.525376,14.72543571,.001292,98.2951,292.8177,304.6589,55.3399,0,U,28895,999,9728,.13313E-3,.794E-5,0
CUTE-1.7+APD II (CO-65),2008-021C,2026-05-17T21:13:34.017600,15.09139374,.0010395,97.8268,118.6837,125.5557,234.6641,0,U,32785,999,98062,.24982E-3,.3902E-4,0
CANX-2,2008-021H,2026-05-17T04:23:02.245632,15.05374272,.00114944,97.8621,116.3682,141.1467,219.0587,0,U,32790,999,98014,.12798637E-3,.1771E-4,0
SEEDS II (CO-66),2008-021J,2026-05-17T18:24:47.782080,15.31630012,.0004846,97.7520,134.2408,75.1413,285.0364,0,U,32791,999,98263,.35478E-3,.1076E-3,0
SWISSCUBE,2009-051B,2026-05-17T17:20:02.383584,14.62416723,.000587,98.4055,45.0785,317.8012,42.2736,0,U,35932,999,88470,.12874E-3,.602E-5,0
BEESAT-1,2009-051C,2026-05-17T05:40:55.174080,14.61665049,.0004729,98.3985,44.2844,338.5961,21.5041,0,U,35933,999,88466,.11209088E-3,.509E-5,0
ITUPSAT1,2009-051E,2026-05-17T11:23:30.185952,14.60389786,.00071254,98.4070,43.7503,344.8531,15.2454,0,U,35935,999,88425,.10667842E-3,.468E-5,0
TISAT 1,2010-035E,2026-05-17T19:00:58.500000,15.30463360,.0003085,98.0707,81.6791,44.0640,316.0844,0,U,36799,999,86305,.43491E-3,.12735E-3,0
AEROCUBE 4.5A,2012-048K,2026-05-17T17:00:33.522048,15.79014906,.0018455,64.6277,136.8872,216.4848,143.5050,0,U,38767,999,36782,.64797E-3,.118416E-2,0
STRAND-1,2013-009E,2026-05-17T11:48:16.189920,14.37143622,.00079301,98.3916,318.4832,330.2368,29.8367,0,U,39090,999,69265,.67566405E-4,.158E-5,0
BRITE-AUSTRIA,2013-009F,2026-05-17T18:29:01.379040,14.36528925,.0009629,98.3987,317.9601,337.6859,22.3907,0,U,39091,999,69268,.46955E-4,.95E-6,0
NEE-01 PEGASO,2013-018B,2026-05-17T15:34:44.171040,14.93494868,.0011332,98.1183,280.8011,263.6771,96.3158,0,U,39151,999,70614,.11629E-3,.1163E-4,0
POPACS 2,2013-055E,2026-05-17T20:08:42.334368,14.90502877,.0418618,80.9911,178.9154,291.4246,64.2803,0,U,39269,999,65869,.15543E-3,.9037E-4,0
POPACS 3,2013-055F,2026-05-17T14:26:19.676832,14.55353971,.0554808,81.0016,262.3265,162.9992,199.0663,0,U,39270,999,63410,.28456E-3,.1196E-3,0
ZACUBE-1 (TSHEPISOSAT),2013-066B,2026-05-17T21:02:34.854720,15.00936481,.0041238,97.8123,100.0495,354.8071,5.2720,0,U,39417,999,67618,.24683E-3,.3138E-4,0
WNISAT-1,2013-066H,2026-05-17T16:08:18.125664,14.58020951,.0162347,97.7164,289.0011,328.4519,30.7025,0,U,39423,999,66228,.59619E-4,.277E-5,0
TRITON-1,2013-066M,2026-05-17T20:06:28.772064,14.81564434,.0089664,97.8274,48.3364,334.3203,25.3571,0,U,39427,999,66959,.24511E-3,.2005E-4,0
GOMX-1,2013-066Q,2026-05-17T19:33:05.182848,14.69329294,.0128833,97.6504,340.1938,174.3930,185.8755,0,U,39430,999,66545,.204E-3,.1317E-4,0
CUBEBUG-2 (LO-74),2013-066AA,2026-05-17T13:57:37.350720,14.93506810,.0059131,97.8896,86.4411,127.8407,232.8184,0,U,39440,999,67242,.16724E-3,.176E-4,0
NEE-02 KRYSAOR,2013-066AB,2026-05-17T13:58:53.191776,14.86492155,.0066455,97.8884,77.0216,168.7508,191.5212,0,U,39441,999,67165,.10813E-3,.936E-5,0
FUNCUBE-1 (AO-73),2013-066AE,2026-05-17T11:49:51.301632,15.09062717,.00349222,97.8263,108.3115,310.4162,49.4020,0,U,39444,999,67503,.27395422E-3,.433E-4,0
UWE-3,2013-066AG,2026-05-17T14:23:58.792128,14.96740642,.0050496,97.8682,93.4792,62.4412,298.1926,0,U,39446,999,67300,.23594E-3,.2704E-4,0
BRITE-CA1 (TORONTO),2014-033L,2026-05-17T19:15:08.339040,14.72631779,.007892,97.9696,267.2984,15.2242,345.1314,0,U,40020,999,63774,.65917E-4,.387E-5,0
DUCHIFAT-1,2014-033M,2026-05-17T13:59:16.401408,15.58842535,.0006026,98.0498,192.5945,175.1555,184.9759,0,U,40021,999,65097,.64189E-3,.49774E-3,0
NANOSATC-BR1,2014-033Q,2026-05-17T19:29:53.279808,15.30422068,.0001676,98.0739,167.5315,294.5217,65.5847,0,U,40024,999,64933,.39253E-3,.11468E-3,0
QB50P1,2014-033R,2026-05-17T18:17:31.729056,15.17749645,.0007858,98.0972,146.7868,341.5889,18.5058,0,U,40025,999,64841,.29289E-3,.5841E-4,0
QB50P2,2014-033Y,2026-05-17T18:47:27.136608,15.14735983,.0005672,98.0752,132.7822,281.8283,78.2311,0,U,40032,999,64806,.24954E-3,.4552E-4,0
PERSEUS-M2,2014-033AD,2026-05-17T19:40:23.914272,14.95412650,.0013288,97.9955,87.7474,45.9211,314.3100,0,U,40037,999,64624,.16602E-3,.1776E-4,0
